{
  "norad_id": 60145,
  "name": "STARLINK-32029",
  "history": [
    {
      "epoch": "2026-03-28T18:01:47.170560Z",
      "apogee_km": 476.2136465969097,
      "perigee_km": 474.24015192847673,
      "latitude_deg": 2.3427280035908912e-05,
      "longitude_deg": 134.83488125885938,
      "height_km": 476.1387675121705,
      "semi_major_axis_km": 6853.363899262693,
      "eccentricity": 0.00014398,
      "inclination_deg": 53.1611,
      "raan_deg": 231.4486,
      "arg_perigee_deg": 90.808,
      "mean_anomaly_deg": 269.3086,
      "mean_motion_rev_day": 15.30196038
    }
  ]
}