{"fetched_at":"2026-03-30T06:02:59Z","count":15439,"tles":[{"name":"STARLINK-32029","line1":"1 60145U 24120L   26087.75124040  .00000258  00000+0  20847-4 0  9990","line2":"2 60145  53.1611 231.4486 0001439  90.8080 269.3086 15.30196038 99294","category":"Starlink"}]}